#dP2020  8  1  0  0  0.00000000      97 __u+U IGS14 FIT  IAC
## 2116 518400.00000000   900.00000000 59062 0.0000000000000
+  121   C01C02C03C04C05C07C08C09C10C11C12C13C14C16C19C20C21
+        C22C23C24C25C26C27C28C29C30C32C33C34C35C36C37C38C39
+        C40C43C44C45C46C60E01E02E03E04E05E07E08E09E11E12E13
+        E14E15E18E19E21E24E25E26E27E30E31E33E36G01G02G03G04
+        G05G06G07G08G09G10G11G12G13G15G16G17G18G19G20G21G22
+        G23G24G25G26G27G28G29G30G31G32J01J02J03J07R01R02R03
+        R04R05R07R08R09R11R12R13R14R15R16R17R18R19R20R21R23
+        R24R26  0  0  0  0  0  0  0  0  0  0  0  0  0  0  0
++         0  0  0  0  0  0  0  0  0  0  0  0  0  0  0  0  0
++         0  0  0  0  0  0  0  0  0  0  0  0  0  0  0  0  0
++         0  0  0  0  0  0  0  0  0  0  0  0  0  0  0  0  0
++         0  0  0  0  0  0  0  0  0  0  0  0  0  0  0  0  0
++         0  0  0  0  0  0  0  0  0  0  0  0  0  0  0  0  0
++         0  0  0  0  0  0  0  0  0  0  0  0  0  0  0  0  0
++         0  0  0  0  0  0  0  0  0  0  0  0  0  0  0  0  0
++         0  0  0  0  0  0  0  0  0  0  0  0  0  0  0  0  0
%c M  cc GPS ccc cccc cccc cccc cccc ccccc ccccc ccccc ccccc
%c cc cc ccc ccc cccc cccc cccc cccc ccccc ccccc ccccc ccccc
%f  1.2500000  1.025000000  0.00000000000  0.000000000000000
%f  0.0000000  0.000000000  0.00000000000  0.000000000000000
%i    0    0    0    0      0      0      0      0         0
%i    0    0    0    0      0      0      0      0         0
/* INFORMATION & ANALYSIS CENTER (IAC)            FINAL DATA
/* S/V CLOCKS ARE ALIGNED TO GNSS TIME                      
/* G:C1WC2W R:C1PC2P E:C1XC5X C:C2IC6I J:C1CC2S             
/* PCV:IGS14_2114 OL/AL:FES2004  NONE     YN ORB:CoN CLK:CoN
*  2020 08 01 20  0  0.00000000
PC01 -34353.519608  24492.423587    636.929311   -271.601084
PC02   4457.063261  41893.243747   -858.686215    175.791340
PC03 -14720.792616  39489.311780  -1067.420960    813.391324
PC04 -39623.004045  14443.252764    -19.870050    -64.359727
PC05  21852.837882  36036.278175  -1030.048051     19.515663
PC07  -7604.170630  28016.620411  30945.326367    111.894670
PC08 -22185.417049  21219.853322 -28986.231892   -416.107838
PC09  -8628.153782  39473.406480  11557.667498    715.644340
PC10   5005.820535  34038.310948  24860.884182   -221.811805
PC11  19669.826698 -17591.066596  -8938.355436   -528.466348
PC12  17618.324108   -465.919610 -21600.907278    452.723062
PC13  -6389.768682  23758.395661 -34212.595636    573.830985
PC14  13134.016090  -9348.581422  22801.299927    755.993563
PC16 -15028.091579  39291.077400     84.899027   -593.503827
PC19  -6575.925983  18211.516494 -20078.461807    494.733002
PC20 -16966.575283    256.543403 -22132.428988   -836.453997
PC21  17623.784920  18629.461837  11053.100270   -662.634456
PC22   7826.394505  26050.282844  -6310.822212   -767.452434
PC23  -5271.401795 -16221.150044 -22072.036217   -844.694707
PC24  27411.995628  -1293.581495  -5013.560297   -751.869950
PC25  15004.776498 -13060.784533 -19563.096734   -706.595979
PC26  23594.616121   9513.560605  11434.835986    776.602731
PC27 -12677.508263  -9531.591812  22939.694119    374.404622
PC28   2594.498287 -22764.197551  15921.967697   -187.948493
PC29 -15427.036585  23252.764404    376.155780    264.056313
PC30 -20117.708512   9655.734298  16740.274632    355.002261
PC32 -17743.003717 -18488.160761 -11021.021651   -879.610860
PC33   6606.463261 -18162.513595  20128.174914   -794.996235
PC34  20234.984405 -10092.914287 -16376.053663   -887.834375
PC35  -1936.027188  22939.106853 -15758.885906   -722.306929
PC36 -15535.930423  12621.663373  19473.384200   -886.253895
PC37 -22962.400275 -10382.565099 -11969.386563   -885.577301
PC38 -19700.846151  23718.185957 -28830.834435     92.212697
PC39 -12760.027616  40118.661456   -608.564691     20.150720
PC40    614.824019  30473.083837  29238.180184     67.145497
PC43  15762.398252 -23029.554066   -719.555856   -308.485033
PC44  12998.889122   9334.355287 -22869.104614   -294.652439
PC45   5335.422401  16100.419920  22171.790132    194.312430
PC46 -27298.639506   1752.489562   5607.534258 999999.999999
PC60   7300.731584  41539.327787     49.007160     -0.804538
PE01  15658.478673  -9039.617328 -23430.901960   -910.637620
PE02 -15570.840925   9120.048725  23469.828485    151.428284
PE03 -12543.612673  20047.201275 -17810.685646   -327.035263
PE04    788.654883 -29560.049083   1283.002311   -577.790511
PE05 -17101.923697  -1371.073370 -24115.404861   -358.265248
PE07  11641.957057  21811.304497  16295.563808   -416.888810
PE08   -424.860448  29587.823859  -1041.109362   6141.200793
PE09 -11724.804634 -21632.562157 -16432.938844   5977.583132
PE11 -13354.423278 -10586.297299  24187.690924   4500.467316
PE12   7451.449910 -20088.815829  20422.776440   5677.117458
PE13  13139.473800  10641.527469 -24297.133478    402.724556
PE14  11885.120382  20924.597377 -21550.008918  -1105.050786
PE15  -7181.336796  20022.251730 -20584.642610    857.854803
PE18  -5486.144135 -18729.260502  13626.823193  -1209.196647
PE19  13375.177251 -18107.342706  19227.013854     42.472790
PE21  26523.272609   6271.259055 -11552.389720   -613.401925
PE24 -21804.399941 -18525.950637  -7616.906649   5319.898237
PE25 -26545.772689  -6362.743728  11450.113858   -514.492005
PE26  25951.806203  -5134.341963 -13273.710733   2892.144139
PE27  22110.807510  18274.443426   7315.463753    164.885594
PE30   4136.355676  19417.993993  21950.965631   3700.101078
PE31  -4746.965070 -19472.127438 -21767.404035   -473.457083
PE33  23286.853322 -17639.310812   4776.930614   -464.232147
PE36 -25740.626913   4989.107682  13735.333179    526.388122
PG01    493.775356  15148.555736 -22014.718967     30.782121
PG02  19674.941733 -14857.185700  10463.279931   -495.997719
PG03   9243.011205  21418.975350 -12869.674009   -257.491385
PG04   1067.401632  24129.884126  11018.633130   -119.537396
PG05   9592.248321 -11944.948374  21546.286249    -17.904749
PG06  25830.240252  -5954.767234  -1931.992237   -310.574340
PG07  18534.943744   8091.605376  17782.000624   -340.657014
PG08  -6070.305201  25711.619381    -23.938171    -43.018975
PG09   9998.525905  15801.472186  18805.250971   -263.470076
PG10 -21641.627961  -8523.523616 -12957.954622   -416.035429
PG11  -6874.153660  21643.829544 -14525.060177   -204.616373
PG12  -7239.455902 -21873.252585 -13579.193972     86.107830
PG13  13392.794711 -21930.319336   6381.239752     31.967409
PG15   2921.650524 -26180.821553  -1058.694142   -213.516609
PG16  -7926.725718  12996.360449  21494.524176   -190.221759
PG17  15332.563409  -1728.060661 -21190.976492    304.769095
PG18 -18470.392980  -7755.856069  17444.536111    260.323667
PG19  16717.606299  -9319.314258 -18692.252073   -124.141984
PG20 -22060.213468 -14955.659288  -1484.004039    527.157853
PG21 -25272.664912   7564.343474   1939.661529     30.702140
PG22   2880.211906  19393.142715 -17780.430848   -767.646788
PG23 -21209.369085 -15334.475380  -4564.322595     25.477964
PG24   1453.921040 -16700.916136 -20731.163925    -16.529998
PG25 -16433.369633 -20568.295132  -4689.766862     30.174387
PG26 -18191.278753   2255.769213  19264.773999    253.851115
PG27 -12356.418508  20916.585298  10181.125642   -360.635255
PG28  20162.721072   9067.221562 -14028.004615    693.831051
PG29  -5529.836350 -19486.688614  17114.381491   -163.364759
PG30  24920.743108   1008.712973   9489.410427   -273.857599
PG31 -26009.205505   6510.322623   -117.002269    -59.429824
PG32 -15930.201487   3019.767389 -20924.658377    326.290924
PJ01 -19298.125075  25134.621036 -23240.128404   -193.794100
PJ02 -28834.645005  20352.253288  27905.868520     -1.879868
PJ03 -31674.021355  27072.142760  11897.970281     -0.270676
PJ07 -25386.522810  33667.725372     10.759822      0.048142
PR01  -9868.132148 -22590.845545  -6519.491165     65.401870
PR02 -12080.119674  -5392.203480 -21780.065945    439.022944
PR03  -6630.002471  13225.341438 -20723.812630     19.609417
PR04   2672.247384  24081.994107  -7943.489923     58.368874
PR05  10285.351760  21383.183535   9346.595544     55.098805
PR07   6371.144684 -13829.477983  20514.305166    -38.939051
PR08  -2551.596411 -24098.762778   8041.410573    -53.808620
PR09  24106.474490   2051.497915  -8181.509577    146.623329
PR11  -2508.229601 -11886.047219 -22402.038719    -32.588008
PR12 -18693.944368 -11324.681023 -13131.683418    151.975085
PR13 -24823.772326  -4254.432259   4007.213758    -41.915225
PR14 -16172.213279   5217.930500  19033.004091     53.992649
PR15   1585.477532  11593.924601  22692.037976    106.957206
PR16  19259.668147  10883.291896  12578.132810     -4.944812
PR17 -18826.970538  17022.979350   2762.445255    346.128502
PR18 -10264.962772  18868.198307 -13712.828407     44.342714
PR19   3014.710310  11118.291595 -22766.067111   -104.951090
PR20  16983.526974  -4712.114102 -18455.638529   -418.230123
PR21  18590.267235 -17353.057504  -1764.098825   -142.151147
PR23  -9030.183655  -5676.903824  23156.513858    322.499840
PR24 -17503.869723   5158.418834  17841.665628      8.286605
PR26  14227.980218   -711.814233 -21144.004412   -363.413567
EOF
